[{"OBJECT_NAME":"LEMUR-2-DEMBITZ","OBJECT_ID":"2017-042T","EPOCH":"2026-03-09T11:23:53.232288","MEAN_MOTION":15.26947128,"ECCENTRICITY":0.00069617,"INCLINATION":97.3807,"RA_OF_ASC_NODE":250.9241,"ARG_OF_PERICENTER":17.1421,"MEAN_ANOMALY":343.0051,"EPHEMERIS_TYPE":0,"CLASSIFICATION_TYPE":"U","NORAD_CAT_ID":42842,"ELEMENT_SET_NO":999,"REV_AT_EPOCH":47311,"BSTAR":0.00076560825,"MEAN_MOTION_DOT":0.00020231,"MEAN_MOTION_DDOT":0},{"OBJECT_NAME":"STARLINK-31095","OBJECT_ID":"2023-211S","EPOCH":"2026-03-09T10:41:02.039136","MEAN_MOTION":15.2759888,"ECCENTRICITY":0.00021865,"INCLINATION":43.0059,"RA_OF_ASC_NODE":86.9674,"ARG_OF_PERICENTER":291.6017,"MEAN_ANOMALY":68.4602,"EPHEMERIS_TYPE":0,"CLASSIFICATION_TYPE":"U","NORAD_CAT_ID":58683,"ELEMENT_SET_NO":999,"REV_AT_EPOCH":12369,"BSTAR":-0.00013971009,"MEAN_MOTION_DOT":-4.107e-5,"MEAN_MOTION_DDOT":0}]
